"{\n    \"CCSDS_OMM_VERS\": \"2.0\",\n    \"COMMENT\": \"GENERATED VIA SPACE-TRACK.ORG API\",\n    \"CREATION_DATE\": \"2025-08-30T11:24:46\",\n    \"ORIGINATOR\": \"18 SPCS\",\n    \"OBJECT_NAME\": \"GALILEO 6 (262)\",\n    \"OBJECT_ID\": \"2014-050B\",\n    \"CENTER_NAME\": \"EARTH\",\n    \"REF_FRAME\": \"TEME\",\n    \"TIME_SYSTEM\": \"UTC\",\n    \"MEAN_ELEMENT_THEORY\": \"SGP4\",\n    \"EPOCH\": \"2025-08-30T01:57:42.077664\",\n    \"MEAN_MOTION\": \"1.8552045106\",\n    \"ECCENTRICITY\": \"0.16391255\",\n    \"INCLINATION\": \"49.208411\",\n    \"RA_OF_ASC_NODE\": \"284.40574\",\n    \"ARG_OF_PERICENTER\": \"169.02884\",\n    \"MEAN_ANOMALY\": \"195.0661\",\n    \"EPHEMERIS_TYPE\": \"0\",\n    \"CLASSIFICATION_TYPE\": \"U\",\n    \"NORAD_CAT_ID\": \"40129\",\n    \"ELEMENT_SET_NO\": \"999\",\n    \"REV_AT_EPOCH\": \"7508\",\n    \"BSTAR\": \"0\",\n    \"MEAN_MOTION_DOT\": \"-0.000000248293\",\n    \"MEAN_MOTION_DDOT\": \"0\",\n    \"TLE_LINE0\": \"0 GALILEO 6 (262)\",\n    \"TLE_LINE1\": \"1 40129U 14050B   25242.08173701 -.00000025  00000-0  00000-0 0  9996\",\n    \"TLE_LINE2\": \"2 40129  49.2084 284.4057 1639126 169.0288 195.0661  1.85520451 75086\",\n    \"SEMIMAJOR_AXIS\": \"27977.398\",\n    \"PERIOD\": \"776.195\",\n    \"APOAPSIS\": \"26185.109\",\n    \"PERIAPSIS\": \"17013.416\",\n    \"OBJECT_TYPE\": \"PAYLOAD\",\n    \"DECAYED\": \"0\"\n}"